ONEWEB-0410             
1 51622U 22012A   23314.40740729 -.00000026  00000+0 -99399-4 0  9991
2 51622  87.9186 194.6532 0002814  86.3656 273.7797 13.17648061 88629
ONEWEB-0411             
1 51623U 22012B   23314.81311337  .00000489  00000+0  13634-2 0  9993
2 51623  87.8929 224.7860 0001502  80.0691 280.0606 13.10375993 86235
ONEWEB-0415             
1 51624U 22012C   23314.50442461  .00000430  00000+0  11955-2 0  9993
2 51624  87.8932 224.8750 0001523  81.9838 278.1462 13.10380610 84918
ONEWEB-0416             
1 51625U 22012D   23314.51580740  .00000532  00000+0  14887-2 0  9998
2 51625  87.8926 224.8592 0001754  69.9923 290.1393 13.10379630 84954
ONEWEB-0422             
1 51626U 22012E   23314.18803858  .00000091  00000+0  20132-3 0  9991
2 51626  87.9180 194.6905 0001461  46.1076 314.0176 13.17648968 88703
ONEWEB-0423             
1 51627U 22012F   23314.40950145 -.00000390  00000+0 -10389-2 0  9995
2 51627  87.9243 194.6291 0001654  74.0698 286.0615 13.17647635 88623
ONEWEB-0425             
1 51628U 22012G   23314.52555986  .00000411  00000+0  11410-2 0  9991
2 51628  87.8920 224.8483 0002194  69.3608 290.7755 13.10370179 84950
ONEWEB-0428             
1 51629U 22012H   23314.81150090  .00000434  00000+0  12080-2 0  9990
2 51629  87.8930 224.8036 0001437  63.4564 296.6710 13.10375699 86232
